{
  "name": "SATGUS",
  "line1": "1 62713U 25009DJ  26004.16802115  .00013133  00000+0  10959-2 0  9997",
  "line2": "2 62713  97.7192  87.0617 0001033  10.4832 349.6412 14.98696273 52977",
  "fetched_at": "2026-01-05T00:22:03.937786+00:00"
}